$$SOE
2460154.500000000, A.D. 2023-Jul-29 00:00:00.0000, -1.208428905492154E+08, -4.058789553357456E+08, 1.323606803468263E+07,
2460161.500000000, A.D. 2023-Aug-05 00:00:00.0000, -1.111112899113100E+08, -4.084596181036900E+08, 1.060649208318561E+07,
2460168.500000000, A.D. 2023-Aug-12 00:00:00.0000, -1.013087018606039E+08, -4.107791201941700E+08, 7.970136349990785E+06,
2460175.500000000, A.D. 2023-Aug-19 00:00:00.0000, -9.144127098990838E+07, -4.128354722353480E+08, 5.328676857375443E+06,
2460182.500000000, A.D. 2023-Aug-26 00:00:00.0000, -8.151520099449190E+07, -4.146268191571869E+08, 2.683799026005417E+06,
2460189.500000000, A.D. 2023-Sep-02 00:00:00.0000, -7.153675306434985E+07, -4.161514420179156E+08, 3.719717435672879E+04,
2460196.500000000, A.D. 2023-Sep-09 00:00:00.0000, -6.151224421365385E+07, -4.174077599856183E+08, -2.609426008038014E+06,
2460203.500000000, A.D. 2023-Sep-16 00:00:00.0000, -5.144804537435554E+07, -4.183943325326407E+08, -5.254360034768343E+06,
2460210.500000000, A.D. 2023-Sep-23 00:00:00.0000, -4.135057883317076E+07, -4.191098615553579E+08, -7.895887259956002E+06,
2460217.500000000, A.D. 2023-Sep-30 00:00:00.0000, -3.122631534721927E+07, -4.195531922272574E+08, -1.053228345148450E+07,
2460224.500000000, A.D. 2023-Oct-07 00:00:00.0000, -2.108177328747050E+07, -4.197233131255370E+08, -1.316181812955070E+07,
2460231.500000000, A.D. 2023-Oct-14 00:00:00.0000, -1.092351876450909E+07, -4.196193589413596E+08, -1.578275503772965E+07,
2460238.500000000, A.D. 2023-Oct-21 00:00:00.0000, -7.581635022426838E+05, -4.192406141698036E+08, -1.839335291271177E+07,
2460245.500000000, A.D. 2023-Oct-28 00:00:00.0000, 9.407638120904816E+06, -4.185865155186595E+08, -2.099186623826104E+07,
2460252.500000000, A.D. 2023-Nov-04 00:00:00.0000, 1.956719161775293E+07, -4.176566538045201E+08, -2.357654593256128E+07,
2460259.500000000, A.D. 2023-Nov-11 00:00:00.0000, 2.971376470719201E+07, -4.164507759332438E+08, -2.614564003512502E+07,
2460266.500000000, A.D. 2023-Nov-18 00:00:00.0000, 3.984058962212854E+07, -4.149687870256708E+08, -2.869739441950992E+07,
2460273.500000000, A.D. 2023-Nov-25 00:00:00.0000, 4.994086548815236E+07, -4.132107526618695E+08, -3.123005353753662E+07,
2460280.500000000, A.D. 2023-Dec-02 00:00:00.0000, 6.000776080648594E+07, -4.111769012506901E+08, -3.374186119941416E+07,
2460287.500000000, A.D. 2023-Dec-09 00:00:00.0000, 7.003441612477516E+07, -4.088676265797021E+08, -3.623106140272418E+07,
2460294.500000000, A.D. 2023-Dec-16 00:00:00.0000, 8.001394718860142E+07, -4.062834905297220E+08, -3.869589923670319E+07,
2460301.500000000, A.D. 2023-Dec-23 00:00:00.0000, 8.993944892676285E+07, -4.034252252630535E+08, -4.113462183875385E+07,
2460308.500000000, A.D. 2023-Dec-30 00:00:00.0000, 9.980399893407556E+07, -4.002937338315355E+08, -4.354547919563317E+07,
2460315.500000000, A.D. 2024-Jan-06 00:00:00.0000, 1.096006586832256E+08, -3.968900915582948E+08, -4.592672482067299E+07,
2460322.500000000, A.D. 2024-Jan-13 00:00:00.0000, 1.193224756435936E+08, -3.932155499926553E+08, -4.827661674676263E+07,
2460329.500000000, A.D. 2024-Jan-20 00:00:00.0000, 1.289624875362911E+08, -3.892715403479550E+08, -5.059341869650184E+07,
2460336.500000000, A.D. 2024-Jan-27 00:00:00.0000, 1.385137267015276E+08, -3.850596757647321E+08, -5.287540119140281E+07,
2460343.500000000, A.D. 2024-Feb-03 00:00:00.0000, 1.479692241543052E+08, -3.805817533415470E+08, -5.512084263953604E+07,
2460350.500000000, A.D. 2024-Feb-10 00:00:00.0000, 1.573220136100236E+08, -3.758397562176706E+08, -5.732803045198356E+07,
2460357.500000000, A.D. 2024-Feb-17 00:00:00.0000, 1.665651356224539E+08, -3.708358556925515E+08, -5.949526220124374E+07,
2460364.500000000, A.D. 2024-Feb-24 00:00:00.0000, 1.756916418729365E+08, -3.655724133594438E+08, -6.162084682457964E+07,
2460371.500000000, A.D. 2024-Mar-02 00:00:00.0000, 1.846945996423119E+08, -3.600519832767176E+08, -6.370310587823223E+07,
2460378.500000000, A.D. 2024-Mar-09 00:00:00.0000, 1.935670966062196E+08, -3.542773142297004E+08, -6.574037486056249E+07,
2460385.500000000, A.D. 2024-Mar-16 00:00:00.0000, 2.023022463506220E+08, -3.482513518752375E+08, -6.773100462404235E+07,
2460392.500000000, A.D. 2024-Mar-23 00:00:00.0000, 2.108931945052380E+08, -3.419772396486171E+08, -6.967336277534077E+07,
2460399.500000000, A.D. 2024-Mar-30 00:00:00.0000, 2.193331232552183E+08, -3.354583184469686E+08, -7.156583485926247E+07,
2460406.500000000, A.D. 2024-Apr-06 00:00:00.0000, 2.276152544895947E+08, -3.286981284428983E+08, -7.340682562455092E+07,
2460413.500000000, A.D. 2024-Apr-13 00:00:00.0000, 2.357328551416670E+08, -3.217004121799622E+08, -7.519476062909122E+07,
2460420.500000000, A.D. 2024-Apr-20 00:00:00.0000, 2.436792437723999E+08, -3.144691162646728E+08, -7.692808787927482E+07,
2460427.500000000, A.D. 2024-Apr-27 00:00:00.0000, 2.514477968800760E+08, -3.070083922077826E+08, -7.860527941066828E+07,
2460434.500000000, A.D. 2024-May-04 00:00:00.0000, 2.590319550223005E+08, -2.993225971073980E+08, -8.022483287508684E+07,
2460441.500000000, A.D. 2024-May-11 00:00:00.0000, 2.664252289860701E+08, -2.914162942630503E+08, -8.178527316317584E+07,
2460448.500000000, A.D. 2024-May-18 00:00:00.0000, 2.736212060848002E+08, -2.832942536854725E+08, -8.328515406678422E+07,
2460455.500000000, A.D. 2024-May-25 00:00:00.0000, 2.806135566031028E+08, -2.749614524950013E+08, -8.472305998215836E+07,
2460462.500000000, A.D. 2024-Jun-01 00:00:00.0000, 2.873960404441738E+08, -2.664230752509086E+08, -8.609760766183288E+07,
2460469.500000000, A.D. 2024-Jun-08 00:00:00.0000, 2.939625142210587E+08, -2.576845142184802E+08, -8.740744803707591E+07,
2460476.500000000, A.D. 2024-Jun-15 00:00:00.0000, 3.003069391873298E+08, -2.487513690133906E+08, -8.865126810074882E+07,
2460483.500000000, A.D. 2024-Jun-22 00:00:00.0000, 3.064233889976659E+08, -2.396294444354523E+08, -8.982779266060431E+07,
2460490.500000000, A.D. 2024-Jun-29 00:00:00.0000, 3.123060551689602E+08, -2.303247483001114E+08, -9.093578591482225E+07,
2460497.500000000, A.D. 2024-Jul-06 00:00:00.0000, 3.179492528763096E+08, -2.208434917234100E+08, -9.197405329066208E+07,
2460504.500000000, A.D. 2024-Jul-13 00:00:00.0000, 3.233474290233734E+08, -2.111920890201923E+08, -9.294144349060777E+07,
2460511.500000000, A.D. 2024-Jul-20 00:00:00.0000, 3.284951705921632E+08, -2.013771560527798E+08, -9.383685046693709E+07,
2460518.500000000, A.D. 2024-Jul-27 00:00:00.0000, 3.333872126054341E+08, -1.914055079764466E+08, -9.465921533978388E+07,
2460525.500000000, A.D. 2024-Aug-03 00:00:00.0000, 3.380184459621105E+08, -1.812841567436226E+08, -9.540752831084806E+07,
2460532.500000000, A.D. 2024-Aug-10 00:00:00.0000, 3.423839252977153E+08, -1.710203083585139E+08, -9.608083058449626E+07,
2460539.500000000, A.D. 2024-Aug-17 00:00:00.0000, 3.464788769020146E+08, -1.606213598481955E+08, -9.667821629464206E+07,
2460546.500000000, A.D. 2024-Aug-24 00:00:00.0000, 3.502987067049297E+08, -1.500948959609400E+08, -9.719883443707940E+07,
2460553.500000000, A.D. 2024-Aug-31 00:00:00.0000, 3.538390084271424E+08, -1.394486856420768E+08, -9.764189081727135E+07,
2460560.500000000, A.D. 2024-Sep-07 00:00:00.0000, 3.570955722396823E+08, -1.286906781486853E+08, -9.800665003009893E+07,
2460567.500000000, A.D. 2024-Sep-14 00:00:00.0000, 3.600643939979619E+08, -1.178289977941046E+08, -9.829243739161174E+07,
2460574.500000000, A.D. 2024-Sep-21 00:00:00.0000, 3.627416830043668E+08, -1.068719368999652E+08, -9.849864059830412E+07,
2460581.500000000, A.D. 2024-Sep-28 00:00:00.0000, 3.651238677917332E+08, -9.582795017735206E+07, -9.862471132814731E+07,
2460588.500000000, A.D. 2024-Oct-05 00:00:00.0000, 3.672076035727831E+08, -8.470565052826422E+07, -9.867016711347115E+07,
2460595.500000000, A.D. 2024-Oct-12 00:00:00.0000, 3.689897809712467E+08, -7.351380328022891E+07, -9.863459320307937E+07,
2460602.500000000, A.D. 2024-Oct-19 00:00:00.0000, 3.704675342610304E+08, -6.226131912085636E+07, -9.851764426981081E+07,
2460609.500000000, A.D. 2024-Oct-26 00:00:00.0000, 3.716382490570890E+08, -5.095724653201086E+07, -9.831904602046284E+07,
2460616.500000000, A.D. 2024-Nov-02 00:00:00.0000, 3.724995696901340E+08, -3.961076387177428E+07, -9.803859673773064E+07,
2460623.500000000, A.D. 2024-Nov-09 00:00:00.0000, 3.730494063358762E+08, -2.823117108490586E+07, -9.767616875498596E+07,
2460630.500000000, A.D. 2024-Nov-16 00:00:00.0000, 3.732859418983266E+08, -1.682788104506350E+07, -9.723170985974565E+07,
2460637.500000000, A.D. 2024-Nov-23 00:00:00.0000, 3.732076386668488E+08, -5.410410585035924E+06, -9.670524462737808E+07,
2460644.500000000, A.D. 2024-Nov-30 00:00:00.0000, 3.728132449256082E+08, 6.011628732864343E+06, -9.609687569975016E+07,
2460651.500000000, A.D. 2024-Dec-07 00:00:00.0000, 3.721018019008667E+08, 1.742854051636131E+07, -9.540678500299022E+07,
2460658.500000000, A.D. 2024-Dec-14 00:00:00.0000, 3.710726503231180E+08, 2.883055532939176E+07, -9.463523473081625E+07,
2460665.500000000, A.D. 2024-Dec-21 00:00:00.0000, 3.697254342589275E+08, 4.020784311669455E+07, -9.378256797542344E+07,
2460672.500000000, A.D. 2024-Dec-28 00:00:00.0000, 3.680601041610447E+08, 5.155052328544621E+07, -9.284920942467490E+07,
2460679.500000000, A.D. 2025-Jan-04 00:00:00.0000, 3.660769217071521E+08, 6.284867480305310E+07, -9.183566616406396E+07,
2460686.500000000, A.D. 2025-Jan-11 00:00:00.0000, 3.637764645809744E+08, 7.409234795187926E+07, -9.074252827565750E+07,
2460693.500000000, A.D. 2025-Jan-18 00:00:00.0000, 3.611596302552835E+08, 8.527157679920200E+07, -8.957046922011478E+07,
2460700.500000000, A.D. 2025-Jan-25 00:00:00.0000, 3.582276389960821E+08, 9.637639188223383E+07, -8.832024605742352E+07,
2460707.500000000, A.D. 2025-Feb-01 00:00:00.0000, 3.549820362531039E+08, 1.073968330509740E+08, -8.699269952047700E+07,
2460714.500000000, A.D. 2025-Feb-08 00:00:00.0000, 3.514246944716344E+08, 1.183229624601662E+08, -8.558875393985201E+07,
$$EOE